{
    "links": {
        "self": "http://www.neowsapp.com/rest/v1/neo/3694988?api_key=iIulBulltgU6a56xZRHN4H3l9WmuAYTsLGpBGhQ2"
    },
    "id": "3694988",
    "neo_reference_id": "3694988",
    "name": "(2014 UV116)",
    "designation": "2014 UV116",
    "nasa_jpl_url": "http://ssd.jpl.nasa.gov/sbdb.cgi?sstr=3694988",
    "absolute_magnitude_h": 23.6,
    "estimated_diameter": {
        "kilometers": {
            "estimated_diameter_min": 0.0506471459,
            "estimated_diameter_max": 0.1132504611
        },
        "meters": {
            "estimated_diameter_min": 50.6471458835,
            "estimated_diameter_max": 113.2504610618
        },
        "miles": {
            "estimated_diameter_min": 0.0314706677,
            "estimated_diameter_max": 0.0703705522
        },
        "feet": {
            "estimated_diameter_min": 166.1651821003,
            "estimated_diameter_max": 371.5566426699
        }
    },
    "is_potentially_hazardous_asteroid": false,
    "close_approach_data": [
        {
            "close_approach_date": "2013-11-21",
            "close_approach_date_full": "2013-Nov-21 06:55",
            "epoch_date_close_approach": 1385016900000,
            "relative_velocity": {
                "kilometers_per_second": "39.3932197264",
                "kilometers_per_hour": "141815.591014963",
                "miles_per_hour": "88118.6932059363"
            },
            "miss_distance": {
                "astronomical": "0.1289651971",
                "lunar": "50.1674616719",
                "kilometers": "19292918.790290177",
                "miles": "11988063.8423793626"
            },
            "orbiting_body": "Venus"
        },
        {
            "close_approach_date": "2014-10-27",
            "close_approach_date_full": "2014-Oct-27 21:41",
            "epoch_date_close_approach": 1414446060000,
            "relative_velocity": {
                "kilometers_per_second": "29.7327045748",
                "kilometers_per_hour": "107037.7364692811",
                "miles_per_hour": "66509.0868633708"
            },
            "miss_distance": {
                "astronomical": "0.04436787",
                "lunar": "17.25910143",
                "kilometers": "6637338.8484369",
                "miles": "4124251.11635322"
            },
            "orbiting_body": "Earth"
        },
        {
            "close_approach_date": "2020-01-15",
            "close_approach_date_full": "2020-Jan-15 08:39",
            "epoch_date_close_approach": 1579077540000,
            "relative_velocity": {
                "kilometers_per_second": "38.0496647279",
                "kilometers_per_hour": "136978.7930204591",
                "miles_per_hour": "85113.2950298514"
            },
            "miss_distance": {
                "astronomical": "0.1151040349",
                "lunar": "44.7754695761",
                "kilometers": "17219318.449445663",
                "miles": "10699588.3379816294"
            },
            "orbiting_body": "Venus"
        },
        {
            "close_approach_date": "2195-10-28",
            "close_approach_date_full": "2195-Oct-28 13:41",
            "epoch_date_close_approach": 7126321260000,
            "relative_velocity": {
                "kilometers_per_second": "23.006489816",
                "kilometers_per_hour": "82823.3633374459",
                "miles_per_hour": "51463.2170693147"
            },
            "miss_distance": {
                "astronomical": "0.4394821313",
                "lunar": "170.9585490757",
                "kilometers": "65745590.745540331",
                "miles": "40852415.7375893278"
            },
            "orbiting_body": "Earth"
        }
    ],
    "orbital_data": {
        "orbit_id": "9",
        "orbit_determination_date": "2017-04-06 08:37:45",
        "first_observation_date": "2014-10-28",
        "last_observation_date": "2014-11-02",
        "data_arc_in_days": 5,
        "observations_used": 78,
        "orbit_uncertainty": "8",
        "minimum_orbit_intersection": ".0355113",
        "jupiter_tisserand_invariant": "6.062",
        "epoch_osculation": "2456959.5",
        "eccentricity": ".7803660602060111",
        "semi_major_axis": ".9171099091451868",
        "inclination": "42.30841463508442",
        "ascending_node_longitude": "36.95391749969799",
        "orbital_period": "320.797153277723",
        "perihelion_distance": ".2014284625696646",
        "perihelion_argument": "211.587292667489",
        "aphelion_distance": "1.632791355720709",
        "perihelion_time": "2456909.968885134147",
        "mean_anomaly": "55.58403860357861",
        "mean_motion": "1.12220447195907",
        "equinox": "J2000",
        "orbit_class": {
            "orbit_class_type": "ATE",
            "orbit_class_description": "Near-Earth asteroid orbits similar to that of 2062 Aten",
            "orbit_class_range": "a (semi-major axis) < 1.0 AU; q (perihelion) > 0.983 AU"
        }
    },
    "is_sentry_object": false
}